{
  "type": "FeatureCollection",
  "features": [
    {
      "type": "Feature",
      "properties": {
        "norad_id": 34389,
        "name": "COSMOS 2251 DEB",
        "group": "cosmos-2251-debris",
        "lat": 71.39943653215241,
        "lon": -6.0529639506517885,
        "alt_km": 755.5710375021281,
        "timestamp": "2025-12-22T04:03:39.562671+00:00",
        "meta_object_name": "COSMOS 2251 DEB",
        "meta_object_id": "1993-036QE",
        "meta_epoch": "2025-12-21T19:37:10.786080",
        "meta_mean_motion": 14.41552496,
        "meta_eccentricity": 0.0029311,
        "meta_inclination": 74.0179,
        "meta_ra_of_asc_node": 232.9816,
        "meta_arg_of_pericenter": 343.3469,
        "meta_mean_anomaly": 91.4063,
        "meta_ephemeris_type": 0,
        "meta_classification_type": "U",
        "meta_norad_cat_id": 34389,
        "meta_element_set_no": 999,
        "meta_rev_at_epoch": 88143,
        "meta_bstar": 0.00025517,
        "meta_mean_motion_dot": 8.07e-06,
        "meta_mean_motion_ddot": 0,
        "tle_line1": "1 34389U 93036QE  25355.81748595  .00000807  00000+0  25517-3 0  9992",
        "tle_line2": "2 34389  74.0179 232.9816 0029311 343.3469  91.4063 14.41552496881434"
      },
      "geometry": {
        "type": "Point",
        "coordinates": [
          -6.0529639506517885,
          71.39943653215241
        ]
      }
    },
    {
      "type": "Feature",
      "properties": {
        "norad_id": 34396,
        "name": "COSMOS 2251 DEB",
        "group": "cosmos-2251-debris",
        "lat": 58.5345696338975,
        "lon": 133.5140643106185,
        "alt_km": 639.7615091893149,
        "timestamp": "2025-12-22T04:03:39.562682+00:00",
        "meta_object_name": "COSMOS 2251 DEB",
        "meta_object_id": "1993-036QM",
        "meta_epoch": "2025-12-21T18:35:24.506016",
        "meta_mean_motion": 14.74634449,
        "meta_eccentricity": 0.0004944,
        "meta_inclination": 74.0294,
        "meta_ra_of_asc_node": 106.3824,
        "meta_arg_of_pericenter": 144.8334,
        "meta_mean_anomaly": 343.761,
        "meta_ephemeris_type": 0,
        "meta_classification_type": "U",
        "meta_norad_cat_id": 34396,
        "meta_element_set_no": 999,
        "meta_rev_at_epoch": 88479,
        "meta_bstar": 0.0016447,
        "meta_mean_motion_dot": 0.00010959,
        "meta_mean_motion_ddot": 0,
        "tle_line1": "1 34396U 93036QM  25355.77458919  .00010959  00000+0  16447-2 0  9993",
        "tle_line2": "2 34396  74.0294 106.3824 0004944 144.8334 343.7610 14.74634449884791"
      },
      "geometry": {
        "type": "Point",
        "coordinates": [
          133.5140643106185,
          58.5345696338975
        ]
      }
    },
    {
      "type": "Feature",
      "properties": {
        "norad_id": 34400,
        "name": "COSMOS 2251 DEB",
        "group": "cosmos-2251-debris",
        "lat": -73.54937320743355,
        "lon": -74.54543021534346,
        "alt_km": 400.14671541381176,
        "timestamp": "2025-12-22T04:03:39.562692+00:00",
        "meta_object_name": "COSMOS 2251 DEB",
        "meta_object_id": "1993-036QR",
        "meta_epoch": "2025-12-21T17:38:21.254208",
        "meta_mean_motion": 15.57308348,
        "meta_eccentricity": 0.0003137,
        "meta_inclination": 73.9629,
        "meta_ra_of_asc_node": 3.3743,
        "meta_arg_of_pericenter": 234.0295,
        "meta_mean_anomaly": 126.0631,
        "meta_ephemeris_type": 0,
        "meta_classification_type": "U",
        "meta_norad_cat_id": 34400,
        "meta_element_set_no": 999,
        "meta_rev_at_epoch": 90114,
        "meta_bstar": 0.0032335,
        "meta_mean_motion_dot": 0.00243586,
        "meta_mean_motion_ddot": 0,
        "tle_line1": "1 34400U 93036QR  25355.73496822  .00243586  00000+0  32335-2 0  9998",
        "tle_line2": "2 34400  73.9629   3.3743 0003137 234.0295 126.0631 15.57308348901146"
      },
      "geometry": {
        "type": "Point",
        "coordinates": [
          -74.54543021534346,
          -73.54937320743355
        ]
      }
    },
    {
      "type": "Feature",
      "properties": {
        "norad_id": 34409,
        "name": "COSMOS 2251 DEB",
        "group": "cosmos-2251-debris",
        "lat": 61.05956597786857,
        "lon": 77.81530823029584,
        "alt_km": 715.5913353525002,
        "timestamp": "2025-12-22T04:03:39.562703+00:00",
        "meta_object_name": "COSMOS 2251 DEB",
        "meta_object_id": "1993-036RA",
        "meta_epoch": "2025-12-21T06:49:42.703392",
        "meta_mean_motion": 14.58046612,
        "meta_eccentricity": 0.0080244,
        "meta_inclination": 74.0636,
        "meta_ra_of_asc_node": 290.6088,
        "meta_arg_of_pericenter": 2.6981,
        "meta_mean_anomaly": 149.1077,
        "meta_ephemeris_type": 0,
        "meta_classification_type": "U",
        "meta_norad_cat_id": 34409,
        "meta_element_set_no": 999,
        "meta_rev_at_epoch": 89317,
        "meta_bstar": 0.00019904,
        "meta_mean_motion_dot": 9.25e-06,
        "meta_mean_motion_ddot": 0,
        "tle_line1": "1 34409U 93036RA  25355.28452203  .00000925  00000+0  19904-3 0  9998",
        "tle_line2": "2 34409  74.0636 290.6088 0080244   2.6981 149.1077 14.58046612893179"
      },
      "geometry": {
        "type": "Point",
        "coordinates": [
          77.81530823029584,
          61.05956597786857
        ]
      }
    },
    {
      "type": "Feature",
      "properties": {
        "norad_id": 34410,
        "name": "COSMOS 2251 DEB",
        "group": "cosmos-2251-debris",
        "lat": 66.1233366280418,
        "lon": -77.10342739540945,
        "alt_km": 485.2175984535479,
        "timestamp": "2025-12-22T04:03:39.562713+00:00",
        "meta_object_name": "COSMOS 2251 DEB",
        "meta_object_id": "1993-036RB",
        "meta_epoch": "2025-12-21T18:31:45.060384",
        "meta_mean_motion": 15.19701228,
        "meta_eccentricity": 0.0021492,
        "meta_inclination": 73.7368,
        "meta_ra_of_asc_node": 242.4821,
        "meta_arg_of_pericenter": 82.3233,
        "meta_mean_anomaly": 338.1079,
        "meta_ephemeris_type": 0,
        "meta_classification_type": "U",
        "meta_norad_cat_id": 34410,
        "meta_element_set_no": 999,
        "meta_rev_at_epoch": 89911,
        "meta_bstar": 0.0018865,
        "meta_mean_motion_dot": 0.00040728,
        "meta_mean_motion_ddot": 0,
        "tle_line1": "1 34410U 93036RB  25355.77204931  .00040728  00000+0  18865-2 0  9996",
        "tle_line2": "2 34410  73.7368 242.4821 0021492  82.3233 338.1079 15.19701228899115"
      },
      "geometry": {
        "type": "Point",
        "coordinates": [
          -77.10342739540945,
          66.1233366280418
        ]
      }
    },
    {
      "type": "Feature",
      "properties": {
        "norad_id": 34412,
        "name": "COSMOS 2251 DEB",
        "group": "cosmos-2251-debris",
        "lat": -44.391435015447016,
        "lon": -69.49540135656784,
        "alt_km": 730.1438245778936,
        "timestamp": "2025-12-22T04:03:39.562723+00:00",
        "meta_object_name": "COSMOS 2251 DEB",
        "meta_object_id": "1993-036RD",
        "meta_epoch": "2025-12-21T06:42:21.482784",
        "meta_mean_motion": 14.47229294,
        "meta_eccentricity": 0.01875477,
        "meta_inclination": 73.9486,
        "meta_ra_of_asc_node": 308.5482,
        "meta_arg_of_pericenter": 41.6351,
        "meta_mean_anomaly": 319.8911,
        "meta_ephemeris_type": 0,
        "meta_classification_type": "U",
        "meta_norad_cat_id": 34412,
        "meta_element_set_no": 999,
        "meta_rev_at_epoch": 87774,
        "meta_bstar": 0.0012144064,
        "meta_mean_motion_dot": 5.508e-05,
        "meta_mean_motion_ddot": 0,
        "tle_line1": "1 34412U 93036RD  25355.27941531  .00005508  00000+0  12144-2 0  9998",
        "tle_line2": "2 34412  73.9486 308.5482 0187547  41.6351 319.8911 14.47229294877744"
      },
      "geometry": {
        "type": "Point",
        "coordinates": [
          -69.49540135656784,
          -44.391435015447016
        ]
      }
    },
    {
      "type": "Feature",
      "properties": {
        "norad_id": 34413,
        "name": "COSMOS 2251 DEB",
        "group": "cosmos-2251-debris",
        "lat": -13.653192416787759,
        "lon": 71.74065432546838,
        "alt_km": 838.8710546710554,
        "timestamp": "2025-12-22T04:03:39.562734+00:00",
        "meta_object_name": "COSMOS 2251 DEB",
        "meta_object_id": "1993-036RE",
        "meta_epoch": "2025-12-21T17:12:45.183168",
        "meta_mean_motion": 14.29160508,
        "meta_eccentricity": 0.0090965,
        "meta_inclination": 74.0306,
        "meta_ra_of_asc_node": 248.5728,
        "meta_arg_of_pericenter": 323.4022,
        "meta_mean_anomaly": 66.8208,
        "meta_ephemeris_type": 0,
        "meta_classification_type": "U",
        "meta_norad_cat_id": 34413,
        "meta_element_set_no": 999,
        "meta_rev_at_epoch": 87259,
        "meta_bstar": 0.0010484,
        "meta_mean_motion_dot": 2.756e-05,
        "meta_mean_motion_ddot": 0,
        "tle_line1": "1 34413U 93036RE  25355.71718962  .00002756  00000+0  10484-2 0  9995",
        "tle_line2": "2 34413  74.0306 248.5728 0090965 323.4022  66.8208 14.29160508872595"
      },
      "geometry": {
        "type": "Point",
        "coordinates": [
          71.74065432546838,
          -13.653192416787759
        ]
      }
    }
  ]
}